OBJECT_NAME,OBJECT_ID,EPOCH,MEAN_MOTION,ECCENTRICITY,INCLINATION,RA_OF_ASC_NODE,ARG_OF_PERICENTER,MEAN_ANOMALY,EPHEMERIS_TYPE,CLASSIFICATION_TYPE,NORAD_CAT_ID,ELEMENT_SET_NO,REV_AT_EPOCH,BSTAR,MEAN_MOTION_DOT,MEAN_MOTION_DDOT
IRIDIUM 156,2018-061H,2026-07-05T02:49:30.347904,14.34218266,.000203,86.3944,49.2299,89.7044,270.4385,0,U,43576,999,41594,.83571E-4,.254E-5,0
IRIDIUM 164,2018-061J,2026-07-05T02:22:06.407328,14.34218344,.0002281,86.3945,49.2786,89.5899,270.5558,0,U,43577,999,41598,.23843E-4,.87E-6,0
IRIDIUM 159,2018-061K,2026-07-05T03:16:54.381792,14.34218479,.0002207,86.3944,49.1991,84.3034,275.8414,0,U,43578,999,41595,.26258E-4,.93E-6,0
IRIDIUM 176,2019-002B,2026-07-05T10:37:00.137280,14.72240843,.0002362,86.6102,345.9061,88.2304,271.9184,0,U,43923,999,40193,.16118E-3,.1041E-4,0
IRIDIUM 168,2019-002C,2026-07-05T09:48:54.634752,14.34217528,.0002229,86.3985,346.0569,90.4615,269.6836,0,U,43924,999,39158,.30634E-5,.28E-6,0
IRIDIUM 173,2019-002D,2026-07-05T09:30:38.854656,14.34211346,.0001536,86.4007,345.9523,71.5057,288.6305,0,U,43925,999,39156,.10735E-3,.32E-5,0
IRIDIUM 169,2019-002E,2026-07-05T11:25:12.866304,14.38612869,.0001675,86.4218,17.5452,93.0580,267.0810,0,U,43926,999,39285,.1108E-3,.359E-5,0
IRIDIUM 175,2019-002G,2026-07-05T07:08:37.531968,14.43623810,.0004604,86.4517,282.9510,135.3243,224.8330,0,U,43928,999,40159,.12688E-3,.45E-5,0
IRIDIUM 171,2019-002H,2026-07-05T10:34:34.866048,14.34218325,.0002168,86.3991,346.2481,94.6864,265.4579,0,U,43929,999,39157,.25095E-4,.9E-6,0
IRIDIUM 170,2019-002J,2026-07-05T10:45:53.548416,14.72241425,.000239,86.6101,345.9057,84.7081,275.4409,0,U,43930,999,40194,.16251E-3,.1049E-4,0
IRIDIUM 167,2019-002K,2026-07-05T10:25:26.817024,14.34218398,.0002114,86.3982,345.9649,98.7889,261.3546,0,U,43931,999,39157,.25496E-4,.91E-6,0
IRIDIUM 181,2023-068S,2026-07-05T03:10:13.028736,14.43308729,.00024917,86.4483,49.2874,86.2952,273.8534,0,U,56726,999,16502,.84986273E-4,.306E-5,0
IRIDIUM 177,2023-068T,2026-07-05T07:20:23.683488,14.80018689,.00021357,86.1979,320.1875,90.6601,269.4865,0,U,56727,999,16904,.19303325E-3,.1486E-4,0
IRIDIUM 174,2023-068U,2026-07-05T10:28:03.312480,14.72249630,.00021627,86.6109,346.0601,80.9172,279.2289,0,U,56728,999,16870,.16822833E-3,.1085E-4,0
IRIDIUM 178,2023-068V,2026-07-05T11:56:35.174976,14.80023050,.00023365,86.6531,17.7066,86.2613,273.8876,0,U,56729,999,16907,.16141803E-3,.1246E-4,0
IRIDIUM 179,2023-068W,2026-07-05T02:04:46.495200,14.80026348,.00022593,86.6766,26.9113,89.6191,270.5289,0,U,56730,999,16901,.16766134E-3,.1294E-4,0
