IRIDIUM 156             
1 43576U 18061H   26186.11771237  .00000254  00000+0  83571-4 0  9991
2 43576  86.3944  49.2299 0002029  89.7044 270.4385 14.34218266415940
IRIDIUM 164             
1 43577U 18061J   26186.09868527  .00000087  00000+0  23843-4 0  9998
2 43577  86.3945  49.2786 0002280  89.5899 270.5558 14.34218344415982
IRIDIUM 159             
1 43578U 18061K   26186.13674054  .00000093  00000+0  26258-4 0  9994
2 43578  86.3944  49.1991 0002207  84.3034 275.8414 14.34218479415957
IRIDIUM 176             
1 43923U 19002B   26186.44236270  .00001041  00000+0  16118-3 0  9999
2 43923  86.6102 345.9061 0002362  88.2304 271.9184 14.72240843401936
IRIDIUM 168             
1 43924U 19002C   26186.40896569  .00000028  00000+0  30634-5 0  9994
2 43924  86.3985 346.0569 0002229  90.4615 269.6836 14.34217528391589
IRIDIUM 173             
1 43925U 19002D   26186.39628305  .00000320  00000+0  10735-3 0  9997
2 43925  86.4007 345.9523 0001535  71.5057 288.6305 14.34211346391565
IRIDIUM 169             
1 43926U 19002E   26186.47584336  .00000359  00000+0  11080-3 0  9998
2 43926  86.4218  17.5452 0001675  93.0580 267.0810 14.38612869392852
IRIDIUM 175             
1 43928U 19002G   26186.29765663  .00000450  00000+0  12688-3 0  9991
2 43928  86.4517 282.9510 0004604 135.3243 224.8330 14.43623811401595
IRIDIUM 171             
1 43929U 19002H   26186.44068133  .00000090  00000+0  25095-4 0  9994
2 43929  86.3991 346.2481 0002167  94.6864 265.4579 14.34218325391572
IRIDIUM 170             
1 43930U 19002J   26186.44853644  .00001049  00000+0  16251-3 0  9993
2 43930  86.6101 345.9057 0002390  84.7081 275.4409 14.72241425401949
IRIDIUM 167             
1 43931U 19002K   26186.43433816  .00000091  00000+0  25496-4 0  9996
2 43931  86.3982 345.9649 0002113  98.7889 261.3546 14.34218398391579
IRIDIUM 181             
1 56726U 23068S   26186.13209524  .00000306  00000+0  84986-4 0  9991
2 56726  86.4483  49.2874 0002491  86.2952 273.8534 14.43308729165020
IRIDIUM 177             
1 56727U 23068T   26186.30582967  .00001486  00000+0  19303-3 0  9996
2 56727  86.1979 320.1875 0002135  90.6601 269.4865 14.80018689169043
IRIDIUM 174             
1 56728U 23068U   26186.43614945  .00001085  00000+0  16823-3 0  9992
2 56728  86.6109 346.0601 0002162  80.9172 279.2289 14.72249630168707
IRIDIUM 178             
1 56729U 23068V   26186.49762934  .00001246  00000+0  16142-3 0  9994
2 56729  86.6531  17.7066 0002336  86.2613 273.8876 14.80023050169074
IRIDIUM 179             
1 56730U 23068W   26186.08664925  .00001294  00000+0  16766-3 0  9997
2 56730  86.6766  26.9113 0002259  89.6191 270.5289 14.80026348169012
